ONEWEB-0697             
1 61603U 24188K   25057.91667824  .00000298  00000+0  20304-3 0  9991
2 61603  87.1624 117.9624 0002641 132.1646 252.0577 13.96663358 20248
ONEWEB-0698             
1 61604U 24188L   25057.91667824 -.00993123  00000+0 -72172+0 0  9998
2 61604  87.2053 117.9840 0005864 123.8088   0.9423 13.99584536 20011
ONEWEB-0699             
1 61605U 24188M   25057.89074894  .00000497  00000+0  13837-2 0  9992
2 61605  87.8787 130.9968 0002349  99.6437 260.4956 13.10524666 21062
ONEWEB-0700             
1 61606U 24188N   25057.89182370  .00000435  00000+0  12097-2 0  9991
2 61606  87.8786 131.0013 0001675  81.9064 278.2253 13.10369905 21055
ONEWEB-0701             
1 61607U 24188P   25057.45082801 -.00000516  00000+0 -15095-2 0  9995
2 61607  87.8793 131.0902 0002225  82.9985 277.1396 13.10547438 21006
ONEWEB-0702             
1 61608U 24188Q   25057.91667824 -.00980780  00000+0 -68510+0 0  9998
2 61608  87.1971 117.9740 0007759 123.5891 156.7262 14.01764845  5477
ONEWEB-0704             
1 61609U 24188R   25057.43952818  .00000053  00000+0  11685-3 0  9995
2 61609  87.8964 130.9921 0001986  74.3633 285.7713 13.10478139 20980
ONEWEB-0705             
1 61610U 24188S   25057.90192856 -.00015205  00000+0 -43583-1 0  9994
2 61610  87.8774 131.0077 0000964  68.8647 291.2583 13.10504000 13215
